{"type": "FeatureCollection", "features": [ {"type": "Feature", "properties": {"norad_id": 66653, "name": "2025-274D", "group": "last-30-days", "lat": 32.15271262343247, "lon": -99.318505909813, "alt_km": 592.5418643150006, "timestamp": "2025-12-04T05:42:42.159919+00:00", "meta": {"OBJECT_NAME": "2025-274D", "OBJECT_ID": "2025-274D", "EPOCH": "2025-12-03T18:17:53.932128", "MEAN_MOTION": 14.91833854, "ECCENTRICITY": 0.00112927, "INCLINATION": 97.7381, "RA_OF_ASC_NODE": 265.1178, "ARG_OF_PERICENTER": 288.1129, "MEAN_ANOMALY": 71.886, "EPHEMERIS_TYPE": 0, "CLASSIFICATION_TYPE": "U", "NORAD_CAT_ID": 66653, "ELEMENT_SET_NO": 999, "REV_AT_EPOCH": 106, "BSTAR": 0.00039267919, "MEAN_MOTION_DOT": 3.913e-05, "MEAN_MOTION_DDOT": 0}, "tle": {"line1": "1 66653U 25274D   25337.76242977  .00003913  00000+0  39268-3 0  9996", "line2": "2 66653  97.7381 265.1178 0011292 288.1129  71.8860 14.91833854  1062"}}, "geometry": {"type": "Point", "coordinates": [-99.318505909813, 32.15271262343247]}}, {"type": "Feature", "properties": {"norad_id": 66654, "name": "JACK E", "group": "last-30-days", "lat": 36.49221566193942, "lon": -100.18648947964775, "alt_km": 591.8251916571162, "timestamp": "2025-12-04T05:42:42.159929+00:00", "meta": {"OBJECT_NAME": "JACK E", "OBJECT_ID": "2025-274E", "EPOCH": "2025-12-03T18:16:47.798112", "MEAN_MOTION": 14.92000049, "ECCENTRICITY": 0.00118227, "INCLINATION": 97.7385, "RA_OF_ASC_NODE": 265.1191, "ARG_OF_PERICENTER": 289.6482, "MEAN_ANOMALY": 70.346, "EPHEMERIS_TYPE": 0, "CLASSIFICATION_TYPE": "U", "NORAD_CAT_ID": 66654, "ELEMENT_SET_NO": 999, "REV_AT_EPOCH": 106, "BSTAR": 0.00049113765, "MEAN_MOTION_DOT": 4.93e-05, "MEAN_MOTION_DDOT": 0}, "tle": {"line1": "1 66654U 25274E   25337.76166433  .00004930  00000+0  49114-3 0  9990", "line2": "2 66654  97.7385 265.1191 0011822 289.6482  70.3460 14.92000049  1062"}}, "geometry": {"type": "Point", "coordinates": [-100.18648947964775, 36.49221566193942]}}, {"type": "Feature", "properties": {"norad_id": 66655, "name": "2025-274F", "group": "last-30-days", "lat": 40.43741224855517, "lon": -101.06426442876658, "alt_km": 587.3217464725358, "timestamp": "2025-12-04T05:42:42.159941+00:00", "meta": {"OBJECT_NAME": "2025-274F", "OBJECT_ID": "2025-274F", "EPOCH": "2025-12-03T18:15:50.074272", "MEAN_MOTION": 14.92224124, "ECCENTRICITY": 0.00078443, "INCLINATION": 97.7361, "RA_OF_ASC_NODE": 265.1198, "ARG_OF_PERICENTER": 318.0696, "MEAN_ANOMALY": 41.9921, "EPHEMERIS_TYPE": 0, "CLASSIFICATION_TYPE": "U", "NORAD_CAT_ID": 66655, "ELEMENT_SET_NO": 999, "REV_AT_EPOCH": 106, "BSTAR": 0.0004933605, "MEAN_MOTION_DOT": 4.977e-05, "MEAN_MOTION_DDOT": 0}, "tle": {"line1": "1 66655U 25274F   25337.76099623  .00004977  00000+0  49336-3 0  9994", "line2": "2 66655  97.7361 265.1198 0007844 318.0696  41.9921 14.92224124  1065"}}, "geometry": {"type": "Point", "coordinates": [-101.06426442876658, 40.43741224855517]}}, {"type": "Feature", "properties": {"norad_id": 66656, "name": "2025-274G", "group": "last-30-days", "lat": 41.3031973866519, "lon": -101.27293959791754, "alt_km": 591.118786817905, "timestamp": "2025-12-04T05:42:42.159951+00:00", "meta": {"OBJECT_NAME": "2025-274G", "OBJECT_ID": "2025-274G", "EPOCH": "2025-12-03T18:15:34.313184", "MEAN_MOTION": 14.92182737, "ECCENTRICITY": 0.00124859, "INCLINATION": 97.7383, "RA_OF_ASC_NODE": 265.1201, "ARG_OF_PERICENTER": 291.2764, "MEAN_ANOMALY": 68.7121, "EPHEMERIS_TYPE": 0, "CLASSIFICATION_TYPE": "U", "NORAD_CAT_ID": 66656, "ELEMENT_SET_NO": 999, "REV_AT_EPOCH": 106, "BSTAR": 0.00055403823, "MEAN_MOTION_DOT": 5.595e-05, "MEAN_MOTION_DDOT": 0}, "tle": {"line1": "1 66656U 25274G   25337.76081381  .00005595  00000+0  55404-3 0  9997", "line2": "2 66656  97.7383 265.1201 0012485 291.2764  68.7121 14.92182737  1062"}}, "geometry": {"type": "Point", "coordinates": [-101.27293959791754, 41.3031973866519]}}, {"type": "Feature", "properties": {"norad_id": 66657, "name": "SPIRONE", "group": "last-30-days", "lat": 46.07039698709013, "lon": -102.52414263764673, "alt_km": 587.6289456909517, "timestamp": "2025-12-04T05:42:42.159961+00:00", "meta": {"OBJECT_NAME": "SPIRONE", "OBJECT_ID": "2025-274H", "EPOCH": "2025-12-03T18:14:21.784704", "MEAN_MOTION": 14.92362345, "ECCENTRICITY": 0.00111252, "INCLINATION": 97.7382, "RA_OF_ASC_NODE": 265.1209, "ARG_OF_PERICENTER": 310.4108, "MEAN_ANOMALY": 49.614, "EPHEMERIS_TYPE": 0, "CLASSIFICATION_TYPE": "U", "NORAD_CAT_ID": 66657, "ELEMENT_SET_NO": 999, "REV_AT_EPOCH": 106, "BSTAR": 0.00053228022, "MEAN_MOTION_DOT": 5.396e-05, "MEAN_MOTION_DDOT": 0}, "tle": {"line1": "1 66657U 25274H   25337.75997436  .00005396  00000+0  53228-3 0  9995", "line2": "2 66657  97.7382 265.1209 0011125 310.4108  49.6140 14.92362345  1060"}}, "geometry": {"type": "Point", "coordinates": [-102.52414263764673, 46.07039698709013]}}, {"type": "Feature", "properties": {"norad_id": 66658, "name": "2025-274J", "group": "last-30-days", "lat": 50.76060568318554, "lon": -103.99133609001164, "alt_km": 586.7546194679417, "timestamp": "2025-12-04T05:42:42.159971+00:00", "meta": {"OBJECT_NAME": "2025-274J", "OBJECT_ID": "2025-274J", "EPOCH": "2025-12-03T18:13:09.737472", "MEAN_MOTION": 14.92536816, "ECCENTRICITY": 0.00117105, "INCLINATION": 97.7382, "RA_OF_ASC_NODE": 265.1219, "ARG_OF_PERICENTER": 313.2372, "MEAN_ANOMALY": 46.7869, "EPHEMERIS_TYPE": 0, "CLASSIFICATION_TYPE": "U", "NORAD_CAT_ID": 66658, "ELEMENT_SET_NO": 999, "REV_AT_EPOCH": 106, "BSTAR": 0.00051297325, "MEAN_MOTION_DOT": 5.222e-05, "MEAN_MOTION_DDOT": 0}, "tle": {"line1": "1 66658U 25274J   25337.75914048  .00005222  00000+0  51297-3 0  9996", "line2": "2 66658  97.7382 265.1219 0011710 313.2372  46.7869 14.92536816  1068"}}, "geometry": {"type": "Point", "coordinates": [-103.99133609001164, 50.76060568318554]}}, {"type": "Feature", "properties": {"norad_id": 66659, "name": "JACK K", "group": "last-30-days", "lat": 55.69213348322072, "lon": -105.90012472505411, "alt_km": 586.1996601164092, "timestamp": "2025-12-04T05:42:42.159983+00:00", "meta": {"OBJECT_NAME": "JACK K", "OBJECT_ID": "2025-274K", "EPOCH": "2025-12-03T18:11:53.608704", "MEAN_MOTION": 14.92722518, "ECCENTRICITY": 0.00124169, "INCLINATION": 97.7384, "RA_OF_ASC_NODE": 265.1232, "ARG_OF_PERICENTER": 314.3342, "MEAN_ANOMALY": 45.6859, "EPHEMERIS_TYPE": 0, "CLASSIFICATION_TYPE": "U", "NORAD_CAT_ID": 66659, "ELEMENT_SET_NO": 999, "REV_AT_EPOCH": 106, "BSTAR": 0.00050377954, "MEAN_MOTION_DOT": 5.152e-05, "MEAN_MOTION_DDOT": 0}, "tle": {"line1": "1 66659U 25274K   25337.75825936  .00005152  00000+0  50378-3 0  9995", "line2": "2 66659  97.7384 265.1232 0012416 314.3342  45.6859 14.92722518  1062"}}, "geometry": {"type": "Point", "coordinates": [-105.90012472505411, 55.69213348322072]}}, {"type": "Feature", "properties": {"norad_id": 66660, "name": "K-HERO", "group": "last-30-days", "lat": 59.652183143569424, "lon": -107.83379407805299, "alt_km": 585.899661772236, "timestamp": "2025-12-04T05:42:42.159995+00:00", "meta": {"OBJECT_NAME": "K-HERO", "OBJECT_ID": "2025-274L", "EPOCH": "2025-12-03T18:10:52.204224", "MEAN_MOTION": 14.92877356, "ECCENTRICITY": 0.0013061, "INCLINATION": 97.7388, "RA_OF_ASC_NODE": 265.1245, "ARG_OF_PERICENTER": 314.8078, "MEAN_ANOMALY": 45.2079, "EPHEMERIS_TYPE": 0, "CLASSIFICATION_TYPE": "U", "NORAD_CAT_ID": 66660, "ELEMENT_SET_NO": 999, "REV_AT_EPOCH": 106, "BSTAR": 0.00063723587, "MEAN_MOTION_DOT": 6.56e-05, "MEAN_MOTION_DDOT": 0}, "tle": {"line1": "1 66660U 25274L   25337.75754866  .00006560  00000+0  63724-3 0  9993", "line2": "2 66660  97.7388 265.1245 0013061 314.8078  45.2079 14.92877356  1061"}}, "geometry": {"type": "Point", "coordinates": [-107.83379407805299, 59.652183143569424]}}, {"type": "Feature", "properties": {"norad_id": 66661, "name": "SNUGLITE-III", "group": "last-30-days", "lat": 63.6657114027804, "lon": -110.34678010226256, "alt_km": 585.7333684870582, "timestamp": "2025-12-04T05:42:42.160006+00:00", "meta": {"OBJECT_NAME": "SNUGLITE-III", "OBJECT_ID": "2025-274M", "EPOCH": "2025-12-03T18:09:48.994848", "MEAN_MOTION": 14.93022901, "ECCENTRICITY": 0.00137618, "INCLINATION": 97.7384, "RA_OF_ASC_NODE": 265.1254, "ARG_OF_PERICENTER": 315.3921, "MEAN_ANOMALY": 44.619, "EPHEMERIS_TYPE": 0, "CLASSIFICATION_TYPE": "U", "NORAD_CAT_ID": 66661, "ELEMENT_SET_NO": 999, "REV_AT_EPOCH": 106, "BSTAR": 0.00042363869, "MEAN_MOTION_DOT": 4.358e-05, "MEAN_MOTION_DDOT": 0}, "tle": {"line1": "1 66661U 25274M   25337.75681707  .00004358  00000+0  42364-3 0  9997", "line2": "2 66661  97.7384 265.1254 0013761 315.3921  44.6190 14.93022901  1064"}}, "geometry": {"type": "Point", "coordinates": [-110.34678010226256, 63.6657114027804]}}, {"type": "Feature", "properties": {"norad_id": 66662, "name": "2025-274N", "group": "last-30-days", "lat": 65.40291537510532, "lon": -111.68135352705787, "alt_km": 585.8651332282752, "timestamp": "2025-12-04T05:42:42.160016+00:00", "meta": {"OBJECT_NAME": "2025-274N", "OBJECT_ID": "2025-274N", "EPOCH": "2025-12-03T18:09:21.232800", "MEAN_MOTION": 14.93083029, "ECCENTRICITY": 0.00141444, "INCLINATION": 97.7385, "RA_OF_ASC_NODE": 265.1256, "ARG_OF_PERICENTER": 314.7564, "MEAN_ANOMALY": 45.2503, "EPHEMERIS_TYPE": 0, "CLASSIFICATION_TYPE": "U", "NORAD_CAT_ID": 66662, "ELEMENT_SET_NO": 999, "REV_AT_EPOCH": 106, "BSTAR": 0.00031726993, "MEAN_MOTION_DOT": 3.254e-05, "MEAN_MOTION_DDOT": 0}, "tle": {"line1": "1 66662U 25274N   25337.75649575  .00003254  00000+0  31727-3 0  9990", "line2": "2 66662  97.7385 265.1256 0014144 314.7564  45.2503 14.93083029  1063"}}, "geometry": {"type": "Point", "coordinates": [-111.68135352705787, 65.40291537510532]}}]}